{
    "links": {
        "self": "http://www.neowsapp.com/rest/v1/neo/3667128?api_key=iIulBulltgU6a56xZRHN4H3l9WmuAYTsLGpBGhQ2"
    },
    "id": "3667128",
    "neo_reference_id": "3667128",
    "name": "(2014 GM35)",
    "designation": "2014 GM35",
    "nasa_jpl_url": "http://ssd.jpl.nasa.gov/sbdb.cgi?sstr=3667128",
    "absolute_magnitude_h": 26.8,
    "estimated_diameter": {
        "kilometers": {
            "estimated_diameter_min": 0.0116025908,
            "estimated_diameter_max": 0.0259441818
        },
        "meters": {
            "estimated_diameter_min": 11.6025908209,
            "estimated_diameter_max": 25.9441817907
        },
        "miles": {
            "estimated_diameter_min": 0.0072095135,
            "estimated_diameter_max": 0.0161209622
        },
        "feet": {
            "estimated_diameter_min": 38.066244069,
            "estimated_diameter_max": 85.1187093863
        }
    },
    "is_potentially_hazardous_asteroid": false,
    "close_approach_data": [
        {
            "close_approach_date": "2014-04-06",
            "close_approach_date_full": "2014-Apr-06 06:25",
            "epoch_date_close_approach": 1396765500000,
            "relative_velocity": {
                "kilometers_per_second": "22.5438120545",
                "kilometers_per_hour": "81157.72339638",
                "miles_per_hour": "50428.2531848229"
            },
            "miss_distance": {
                "astronomical": "0.004895659",
                "lunar": "1.904411351",
                "kilometers": "732380.15864633",
                "miles": "455079.928246154"
            },
            "orbiting_body": "Moon"
        },
        {
            "close_approach_date": "2014-04-06",
            "close_approach_date_full": "2014-Apr-06 07:23",
            "epoch_date_close_approach": 1396768980000,
            "relative_velocity": {
                "kilometers_per_second": "23.4876619932",
                "kilometers_per_hour": "84555.5831754001",
                "miles_per_hour": "52539.5511125146"
            },
            "miss_distance": {
                "astronomical": "0.0031131688",
                "lunar": "1.2110226632",
                "kilometers": "465723.421430456",
                "miles": "289387.1150180528"
            },
            "orbiting_body": "Earth"
        },
        {
            "close_approach_date": "2020-04-22",
            "close_approach_date_full": "2020-Apr-22 23:59",
            "epoch_date_close_approach": 1587599940000,
            "relative_velocity": {
                "kilometers_per_second": "6.8796024959",
                "kilometers_per_hour": "24766.5689851226",
                "miles_per_hour": "15388.9828230058"
            },
            "miss_distance": {
                "astronomical": "0.9164660437",
                "lunar": "356.5052909993",
                "kilometers": "137101368.064846919",
                "miles": "85190839.7637647222"
            },
            "orbiting_body": "Juptr"
        }
    ],
    "orbital_data": {
        "orbit_id": "4",
        "orbit_determination_date": "2017-04-06 08:41:40",
        "first_observation_date": "2014-04-07",
        "last_observation_date": "2014-04-08",
        "data_arc_in_days": 1,
        "observations_used": 17,
        "orbit_uncertainty": "8",
        "minimum_orbit_intersection": ".0028744",
        "jupiter_tisserand_invariant": "2.948",
        "epoch_osculation": "2456755.5",
        "eccentricity": ".7846205125566716",
        "semi_major_axis": "2.485677634571572",
        "inclination": "4.187486483123252",
        "ascending_node_longitude": "194.040616445658",
        "orbital_period": "1431.415230537668",
        "perihelion_distance": ".53536397488337",
        "perihelion_argument": "268.9697262474546",
        "aphelion_distance": "4.435991294259773",
        "perihelion_time": "2456709.021666521463",
        "mean_anomaly": "11.68927065697657",
        "mean_motion": ".2514993499578573",
        "equinox": "J2000",
        "orbit_class": {
            "orbit_class_type": "APO",
            "orbit_class_description": "Near-Earth asteroid orbits which cross the Earth’s orbit similar to that of 1862 Apollo",
            "orbit_class_range": "a (semi-major axis) > 1.0 AU; q (perihelion) < 1.017 AU"
        }
    },
    "is_sentry_object": false
}